start=new Date('2022-08-21T00:00:00.000Z').valueOf();
sats=[{"MEAN_MOTION":"15.08808363","OBJECT_ID":"2022-017U","SEMIMAJOR_AXIS":"6917.977","RCS_SIZE":"LARGE","OBJECT_TYPE":"PAYLOAD","NORAD_CAT_ID":"51786","REF_FRAME":"TEME","EPHEMERIS_TYPE":"0","MEAN_MOTION_DDOT":"0.0000000000000","REV_AT_EPOCH":"130","CENTER_NAME":"EARTH","MEAN_ANOMALY":"169.7532","COUNTRY_CODE":"US","RA_OF_ASC_NODE":"50.5577","CLASSIFICATION_TYPE":"U","TIME_SYSTEM":"UTC","GP_ID":"210621625","OBJECT_NAME":"STARLINK-3638","DECAY_DATE":null,"FILE":"3541760","MEAN_ELEMENT_THEORY":"SGP4","MEAN_MOTION_DOT":"0.00046118","EPOCH":"2022-08-20T22:00:00.999936","PERIOD":"95.440","ARG_OF_PERICENTER":"57.7455","LAUNCH_DATE":"2022-02-25","TLE_LINE1":"1 51786U 22017U   22232.91667824  .00046118  00000-0  28994-2 0  9997","ELEMENT_SET_NO":"999","APOAPSIS":"540.890","SITE":"AFWTR","ECCENTRICITY":"0.00015150","PERIAPSIS":"538.794","BSTAR":"0.00289940000000","TLE_LINE2":"2 51786  53.2163  50.5577 0001515  57.7455 169.7532 15.08808363  1302","INCLINATION":"53.2163"},{"SITE":"AFWTR","APOAPSIS":"540.914","TLE_LINE1":"1 51787U 22017V   22233.00001157  .00028189  00000-0  17828-2 0  9992","ELEMENT_SET_NO":"999","PERIOD":"95.438","ARG_OF_PERICENTER":"52.7966","EPOCH":"2022-08-21T00:00:00.999648","LAUNCH_DATE":"2022-02-25","FILE":"3541756","DECAY_DATE":null,"MEAN_MOTION_DOT":"0.00028189","MEAN_ELEMENT_THEORY":"SGP4","OBJECT_NAME":"STARLINK-3619","GP_ID":"210597757","TIME_SYSTEM":"UTC","INCLINATION":"53.2166","TLE_LINE2":"2 51787  53.2166  50.1812 0001628  52.7966 187.5850 15.08826194 28167","BSTAR":"0.00178280000000","PERIAPSIS":"538.661","ECCENTRICITY":"0.00016280","REF_FRAME":"TEME","EPHEMERIS_TYPE":"0","OBJECT_TYPE":"PAYLOAD","NORAD_CAT_ID":"51787","RCS_SIZE":"LARGE","SEMIMAJOR_AXIS":"6917.923","OBJECT_ID":"2022-017V","MEAN_MOTION":"15.08826194","COUNTRY_CODE":"US","RA_OF_ASC_NODE":"50.1812","CLASSIFICATION_TYPE":"U","CENTER_NAME":"EARTH","MEAN_ANOMALY":"187.5850","REV_AT_EPOCH":"2816","MEAN_MOTION_DDOT":"0.0000000000000"},{"APOAPSIS":"540.946","SITE":"AFWTR","LAUNCH_DATE":"2022-02-25","EPOCH":"2022-08-20T22:00:00.999936","PERIOD":"95.440","ARG_OF_PERICENTER":"56.4287","ELEMENT_SET_NO":"999","TLE_LINE1":"1 51788U 22017W   22232.91667824  .00044062  00000-0  27723-2 0  9994","MEAN_MOTION_DOT":"0.00044062","MEAN_ELEMENT_THEORY":"SGP4","DECAY_DATE":null,"FILE":"3541760","TIME_SYSTEM":"UTC","GP_ID":"210620627","OBJECT_NAME":"STARLINK-3641","INCLINATION":"53.2183","TLE_LINE2":"2 51788  53.2183  50.5750 0001562  56.4287 231.1120 15.08800833  1301","BSTAR":"0.00277230000000","PERIAPSIS":"538.785","ECCENTRICITY":"0.00015620","EPHEMERIS_TYPE":"0","REF_FRAME":"TEME","RCS_SIZE":"LARGE","NORAD_CAT_ID":"51788","OBJECT_TYPE":"PAYLOAD","OBJECT_ID":"2022-017W","SEMIMAJOR_AXIS":"6918.000","MEAN_MOTION":"15.08800833","CLASSIFICATION_TYPE":"U","COUNTRY_CODE":"US","RA_OF_ASC_NODE":"50.5750","REV_AT_EPOCH":"130","MEAN_ANOMALY":"231.1120","CENTER_NAME":"EARTH","MEAN_MOTION_DDOT":"0.0000000000000"},{"OBJECT_NAME":"STARLINK-3639","TIME_SYSTEM":"UTC","GP_ID":"210621377","MEAN_MOTION_DOT":"0.00033419","MEAN_ELEMENT_THEORY":"SGP4","DECAY_DATE":null,"FILE":"3541760","ELEMENT_SET_NO":"999","TLE_LINE1":"1 51789U 22017X   22232.91667824  .00033419  00000-0  21088-2 0  9997","LAUNCH_DATE":"2022-02-25","EPOCH":"2022-08-20T22:00:00.999936","PERIOD":"95.439","ARG_OF_PERICENTER":"56.1753","SITE":"AFWTR","APOAPSIS":"540.909","ECCENTRICITY":"0.00016140","PERIAPSIS":"538.676","TLE_LINE2":"2 51789  53.2165  50.5609 0001614  56.1753 151.3956 15.08824699  1304","BSTAR":"0.00210880000000","INCLINATION":"53.2165","MEAN_MOTION":"15.08824699","SEMIMAJOR_AXIS":"6917.927","OBJECT_ID":"2022-017X","NORAD_CAT_ID":"51789","OBJECT_TYPE":"PAYLOAD","RCS_SIZE":"LARGE","EPHEMERIS_TYPE":"0","REF_FRAME":"TEME","MEAN_MOTION_DDOT":"0.0000000000000","MEAN_ANOMALY":"151.3956","CENTER_NAME":"EARTH","REV_AT_EPOCH":"130","CLASSIFICATION_TYPE":"U","COUNTRY_CODE":"US","RA_OF_ASC_NODE":"50.5609"},{"MEAN_MOTION_DOT":"0.00028047","MEAN_ELEMENT_THEORY":"SGP4","FILE":"3541756","DECAY_DATE":null,"OBJECT_NAME":"STARLINK-3631","TIME_SYSTEM":"UTC","GP_ID":"210597766","SITE":"AFWTR","APOAPSIS":"540.776","ELEMENT_SET_NO":"999","TLE_LINE1":"1 51790U 22017Y   22233.00001157  .00028047  00000-0  17746-2 0  9998","LAUNCH_DATE":"2022-02-25","PERIOD":"95.439","ARG_OF_PERICENTER":"54.7629","EPOCH":"2022-08-21T00:00:00.999648","PERIAPSIS":"538.877","ECCENTRICITY":"0.00013720","INCLINATION":"53.2171","TLE_LINE2":"2 51790  53.2171  50.1989 0001372  54.7629 345.7118 15.08813433 28219","BSTAR":"0.00177460000000","SEMIMAJOR_AXIS":"6917.962","OBJECT_ID":"2022-017Y","MEAN_MOTION":"15.08813433","EPHEMERIS_TYPE":"0","REF_FRAME":"TEME","NORAD_CAT_ID":"51790","OBJECT_TYPE":"PAYLOAD","RCS_SIZE":"MEDIUM","MEAN_ANOMALY":"345.7118","CENTER_NAME":"EARTH","REV_AT_EPOCH":"2821","MEAN_MOTION_DDOT":"0.0000000000000","CLASSIFICATION_TYPE":"U","RA_OF_ASC_NODE":"50.1989","COUNTRY_CODE":"US"},{"RCS_SIZE":"LARGE","OBJECT_TYPE":"PAYLOAD","NORAD_CAT_ID":"51791","REF_FRAME":"TEME","EPHEMERIS_TYPE":"0","MEAN_MOTION":"15.08809019","OBJECT_ID":"2022-017Z","SEMIMAJOR_AXIS":"6917.975","RA_OF_ASC_NODE":"50.1812","COUNTRY_CODE":"US","CLASSIFICATION_TYPE":"U","MEAN_MOTION_DDOT":"0.0000000000000","REV_AT_EPOCH":"2815","CENTER_NAME":"EARTH","MEAN_ANOMALY":"285.1723","EPOCH":"2022-08-21T00:00:00.999648","PERIOD":"95.440","ARG_OF_PERICENTER":"55.2331","LAUNCH_DATE":"2022-02-25","TLE_LINE1":"1 51791U 22017Z   22233.00001157  .00024950  00000-0  15815-2 0  9993","ELEMENT_SET_NO":"999","APOAPSIS":"541.042","SITE":"AFWTR","GP_ID":"210597975","TIME_SYSTEM":"UTC","OBJECT_NAME":"STARLINK-3602","FILE":"3541756","DECAY_DATE":null,"MEAN_MOTION_DOT":"0.00024950","MEAN_ELEMENT_THEORY":"SGP4","TLE_LINE2":"2 51791  53.2168  50.1812 0001737  55.2331 285.1723 15.08809019 28159","BSTAR":"0.00158150000000","INCLINATION":"53.2168","ECCENTRICITY":"0.00017370","PERIAPSIS":"538.638"},{"FILE":"3541756","DECAY_DATE":null,"MEAN_MOTION_DOT":"0.00030660","MEAN_ELEMENT_THEORY":"SGP4","OBJECT_NAME":"STARLINK-3626","TIME_SYSTEM":"UTC","GP_ID":"210597765","SITE":"AFWTR","APOAPSIS":"540.742","TLE_LINE1":"1 51792U 22017AA  22233.00001157  .00030660  00000-0  19369-2 0  9997","ELEMENT_SET_NO":"999","ARG_OF_PERICENTER":"51.5263","PERIOD":"95.438","EPOCH":"2022-08-21T00:00:00.999648","LAUNCH_DATE":"2022-02-25","PERIAPSIS":"538.837","ECCENTRICITY":"0.00013770","INCLINATION":"53.2183","TLE_LINE2":"2 51792  53.2183  50.1990 0001377  51.5263  28.8902 15.08825502 28210","BSTAR":"0.00193690000000","SEMIMAJOR_AXIS":"6917.925","OBJECT_ID":"2022-017AA","MEAN_MOTION":"15.08825502","REF_FRAME":"TEME","EPHEMERIS_TYPE":"0","OBJECT_TYPE":"PAYLOAD","NORAD_CAT_ID":"51792","RCS_SIZE":"LARGE","CENTER_NAME":"EARTH","MEAN_ANOMALY":"28.8902","REV_AT_EPOCH":"2821","MEAN_MOTION_DDOT":"0.0000000000000","COUNTRY_CODE":"US","RA_OF_ASC_NODE":"50.1990","CLASSIFICATION_TYPE":"U"},{"INCLINATION":"53.2180","TLE_LINE2":"2 51793  53.2180  50.1877 0001734  59.7535 300.6676 15.08810567 28215","BSTAR":"0.00162950000000","PERIAPSIS":"538.636","ECCENTRICITY":"0.00017340","APOAPSIS":"541.035","SITE":"AFWTR","EPOCH":"2022-08-21T00:00:00.999648","PERIOD":"95.439","ARG_OF_PERICENTER":"59.7535","LAUNCH_DATE":"2022-02-25","TLE_LINE1":"1 51793U 22017AB  22233.00001157  .00025720  00000-0  16295-2 0  9994","ELEMENT_SET_NO":"999","FILE":"3541756","DECAY_DATE":null,"MEAN_MOTION_DOT":"0.00025720","MEAN_ELEMENT_THEORY":"SGP4","TIME_SYSTEM":"UTC","GP_ID":"210597762","OBJECT_NAME":"STARLINK-3633","RA_OF_ASC_NODE":"50.1877","COUNTRY_CODE":"US","CLASSIFICATION_TYPE":"U","REV_AT_EPOCH":"2821","CENTER_NAME":"EARTH","MEAN_ANOMALY":"300.6676","MEAN_MOTION_DDOT":"0.0000000000000","REF_FRAME":"TEME","EPHEMERIS_TYPE":"0","RCS_SIZE":"LARGE","OBJECT_TYPE":"PAYLOAD","NORAD_CAT_ID":"51793","OBJECT_ID":"2022-017AB","SEMIMAJOR_AXIS":"6917.970","MEAN_MOTION":"15.08810567"},{"PERIAPSIS":"538.714","ECCENTRICITY":"0.00015720","INCLINATION":"53.2179","BSTAR":"0.00288290000000","TLE_LINE2":"2 51794  53.2179  50.5749 0001572  64.0388 323.4996 15.08821598  1306","DECAY_DATE":null,"FILE":"3541760","MEAN_ELEMENT_THEORY":"SGP4","MEAN_MOTION_DOT":"0.00045869","TIME_SYSTEM":"UTC","GP_ID":"210621626","OBJECT_NAME":"STARLINK-3573","APOAPSIS":"540.889","SITE":"AFWTR","EPOCH":"2022-08-20T22:00:00.999936","PERIOD":"95.439","ARG_OF_PERICENTER":"64.0388","LAUNCH_DATE":"2022-02-25","TLE_LINE1":"1 51794U 22017AC  22232.91667824  .00045869  00000-0  28829-2 0  9995","ELEMENT_SET_NO":"999","REV_AT_EPOCH":"130","CENTER_NAME":"EARTH","MEAN_ANOMALY":"323.4996","MEAN_MOTION_DDOT":"0.0000000000000","RA_OF_ASC_NODE":"50.5749","COUNTRY_CODE":"US","CLASSIFICATION_TYPE":"U","OBJECT_ID":"2022-017AC","SEMIMAJOR_AXIS":"6917.937","MEAN_MOTION":"15.08821598","REF_FRAME":"TEME","EPHEMERIS_TYPE":"0","RCS_SIZE":"LARGE","OBJECT_TYPE":"PAYLOAD","NORAD_CAT_ID":"51794"},{"MEAN_MOTION_DDOT":"0.0000000000000","REV_AT_EPOCH":"130","CENTER_NAME":"EARTH","MEAN_ANOMALY":"305.5065","RA_OF_ASC_NODE":"50.5759","COUNTRY_CODE":"US","CLASSIFICATION_TYPE":"U","MEAN_MOTION":"15.08803798","OBJECT_ID":"2022-017AD","SEMIMAJOR_AXIS":"6917.991","RCS_SIZE":"LARGE","OBJECT_TYPE":"PAYLOAD","NORAD_CAT_ID":"51795","REF_FRAME":"TEME","EPHEMERIS_TYPE":"0","ECCENTRICITY":"0.00016540","PERIAPSIS":"538.712","TLE_LINE2":"2 51795  53.2178  50.5759 0001654  62.0825 305.5065 15.08803798  1302","BSTAR":"0.00278250000000","INCLINATION":"53.2178","TIME_SYSTEM":"UTC","GP_ID":"210621852","OBJECT_NAME":"STARLINK-3586","DECAY_DATE":null,"FILE":"3541760","MEAN_ELEMENT_THEORY":"SGP4","MEAN_MOTION_DOT":"0.00044230","EPOCH":"2022-08-20T22:00:00.999936","PERIOD":"95.440","ARG_OF_PERICENTER":"62.0825","LAUNCH_DATE":"2022-02-25","TLE_LINE1":"1 51795U 22017AD  22232.91667824  .00044230  00000-0  27825-2 0  9992","ELEMENT_SET_NO":"999","APOAPSIS":"541.000","SITE":"AFWTR"}];
